[{"OBJECT_NAME":"TEVEL2-1","OBJECT_ID":"2025-052H","EPOCH":"2026-03-09T15:32:51.927072","MEAN_MOTION":15.30341923,"ECCENTRICITY":0.0004767,"INCLINATION":97.3991,"RA_OF_ASC_NODE":324.7682,"ARG_OF_PERICENTER":104.8919,"MEAN_ANOMALY":255.2849,"EPHEMERIS_TYPE":0,"CLASSIFICATION_TYPE":"U","NORAD_CAT_ID":63217,"ELEMENT_SET_NO":999,"REV_AT_EPOCH":5485,"BSTAR":0.000706,"MEAN_MOTION_DOT":0.00020683,"MEAN_MOTION_DDOT":0},{"OBJECT_NAME":"STARLINK-34286","OBJECT_ID":"2025-161W","EPOCH":"2026-03-09T21:50:20.934528","MEAN_MOTION":15.30240937,"ECCENTRICITY":9.405e-5,"INCLINATION":53.1564,"RA_OF_ASC_NODE":293.1737,"ARG_OF_PERICENTER":62.4593,"MEAN_ANOMALY":297.6503,"EPHEMERIS_TYPE":0,"CLASSIFICATION_TYPE":"U","NORAD_CAT_ID":65035,"ELEMENT_SET_NO":999,"REV_AT_EPOCH":3426,"BSTAR":0.0017070651,"MEAN_MOTION_DOT":0.00050608,"MEAN_MOTION_DDOT":0}]
